{
  "norad_id": 64257,
  "name": "STARLINK-34352",
  "history": [
    {
      "epoch": "2026-03-28T13:16:33.429216",
      "apogee_km": 476.1201240319797,
      "perigee_km": 474.19571881804313,
      "latitude_deg": -50.16167906088168,
      "longitude_deg": -61.19618976023048,
      "semi_major_axis_km": 6853.294921425011,
      "eccentricity": 0.0001404,
      "inclination_deg": 53.162,
      "raan_deg": 29.1155,
      "arg_perigee_deg": 95.0814,
      "mean_anomaly_deg": 265.0347,
      "mean_motion_rev_day": 15.3021914
    },
    {
      "epoch": "2026-03-29T04:57:05.362848",
      "apogee_km": 475.99343008905726,
      "perigee_km": 474.3774166616249,
      "latitude_deg": 10.959735859755037,
      "longitude_deg": 1.5059587201103568,
      "semi_major_axis_km": 6853.322423375341,
      "eccentricity": 0.0001179,
      "inclination_deg": 53.1617,
      "raan_deg": 26.0823,
      "arg_perigee_deg": 93.1778,
      "mean_anomaly_deg": 266.9357,
      "mean_motion_rev_day": 15.30209929
    }
  ]
}